{"type": "FeatureCollection", "features": [{"type": "Feature", "properties": {"norad_id": 25590, "name": "COSMOS 2361", "group": "musson", "lat": 48.668315971812895, "lon": 145.28844587881625, "alt_km": 984.7657844266905, "timestamp": "2025-12-27T04:40:45.775464+00:00", "meta": {"OBJECT_NAME": "COSMOS 2361", "OBJECT_ID": "1998-076A", "EPOCH": "2025-12-26T23:03:30.281760", "MEAN_MOTION": 13.73219085, "ECCENTRICITY": 0.00303988, "INCLINATION": 82.9346, "RA_OF_ASC_NODE": 333.5679, "ARG_OF_PERICENTER": 224.4841, "MEAN_ANOMALY": 189.4518, "EPHEMERIS_TYPE": 0, "CLASSIFICATION_TYPE": "U", "NORAD_CAT_ID": 25590, "ELEMENT_SET_NO": 999, "REV_AT_EPOCH": 35306, "BSTAR": 6.5783468e-05, "MEAN_MOTION_DOT": 7.6e-07, "MEAN_MOTION_DDOT": 0}, "tle": {"line1": "1 25590U 98076A   25360.96076715  .00000076  00000+0  65783-4 0  9993", "line2": "2 25590  82.9346 333.5679 0030398 224.4841 189.4518 13.73219085353061"}}, "geometry": {"type": "Point", "coordinates": [145.28844587881625, 48.668315971812895]}}, {"type": "Feature", "properties": {"norad_id": 26818, "name": "COSMOS 2378", "group": "musson", "lat": -70.88479100443682, "lon": -170.00340399316832, "alt_km": 990.9748054007296, "timestamp": "2025-12-27T04:40:45.775485+00:00", "meta": {"OBJECT_NAME": "COSMOS 2378", "OBJECT_ID": "2001-023A", "EPOCH": "2025-12-26T10:31:21.747360", "MEAN_MOTION": 13.7414309, "ECCENTRICITY": 0.003327, "INCLINATION": 82.9272, "RA_OF_ASC_NODE": 349.5666, "ARG_OF_PERICENTER": 166.5607, "MEAN_ANOMALY": 304.8436, "EPHEMERIS_TYPE": 0, "CLASSIFICATION_TYPE": "U", "NORAD_CAT_ID": 26818, "ELEMENT_SET_NO": 999, "REV_AT_EPOCH": 23111, "BSTAR": 4.6609e-05, "MEAN_MOTION_DOT": 5.9e-07, "MEAN_MOTION_DDOT": 0}, "tle": {"line1": "1 26818U 01023A   25360.43844615  .00000059  00000+0  46609-4 0  9994", "line2": "2 26818  82.9272 349.5666 0033270 166.5607 304.8436 13.74143090231110"}}, "geometry": {"type": "Point", "coordinates": [-170.00340399316832, -70.88479100443682]}}, {"type": "Feature", "properties": {"norad_id": 27436, "name": "COSMOS 2389", "group": "musson", "lat": 27.949078778514778, "lon": 112.52079183389843, "alt_km": 1002.2094961920548, "timestamp": "2025-12-27T04:40:45.775497+00:00", "meta": {"OBJECT_NAME": "COSMOS 2389", "OBJECT_ID": "2002-026A", "EPOCH": "2025-12-26T23:02:37.613184", "MEAN_MOTION": 13.75156197, "ECCENTRICITY": 0.00469762, "INCLINATION": 82.9514, "RA_OF_ASC_NODE": 296.4583, "ARG_OF_PERICENTER": 21.8938, "MEAN_ANOMALY": 47.5985, "EPHEMERIS_TYPE": 0, "CLASSIFICATION_TYPE": "U", "NORAD_CAT_ID": 27436, "ELEMENT_SET_NO": 999, "REV_AT_EPOCH": 18344, "BSTAR": 6.7460006e-05, "MEAN_MOTION_DOT": 8e-07, "MEAN_MOTION_DDOT": 0}, "tle": {"line1": "1 27436U 02026A   25360.96015756  .00000080  00000+0  67460-4 0  9991", "line2": "2 27436  82.9514 296.4583 0046976  21.8938  47.5985 13.75156197183446"}}, "geometry": {"type": "Point", "coordinates": [112.52079183389843, 27.949078778514778]}}, {"type": "Feature", "properties": {"norad_id": 27818, "name": "COSMOS 2398", "group": "musson", "lat": -39.98700879521407, "lon": -103.91215115565345, "alt_km": 1007.038883791688, "timestamp": "2025-12-27T04:40:45.775508+00:00", "meta": {"OBJECT_NAME": "COSMOS 2398", "OBJECT_ID": "2003-023A", "EPOCH": "2025-12-26T23:40:55.878240", "MEAN_MOTION": 13.72387299, "ECCENTRICITY": 0.00326813, "INCLINATION": 82.9482, "RA_OF_ASC_NODE": 262.2001, "ARG_OF_PERICENTER": 73.8544, "MEAN_ANOMALY": 298.0938, "EPHEMERIS_TYPE": 0, "CLASSIFICATION_TYPE": "U", "NORAD_CAT_ID": 27818, "ELEMENT_SET_NO": 999, "REV_AT_EPOCH": 13012, "BSTAR": 6.1519074e-05, "MEAN_MOTION_DOT": 7.2e-07, "MEAN_MOTION_DDOT": 0}, "tle": {"line1": "1 27818U 03023A   25360.98675785  .00000072  00000+0  61519-4 0  9999", "line2": "2 27818  82.9482 262.2001 0032681  73.8544 298.0938 13.72387299130122"}}, "geometry": {"type": "Point", "coordinates": [-103.91215115565345, -39.98700879521407]}}, {"type": "Feature", "properties": {"norad_id": 28380, "name": "COSMOS 2407", "group": "musson", "lat": -0.2937514336959967, "lon": -157.84656295752862, "alt_km": 951.8263706515891, "timestamp": "2025-12-27T04:40:45.775519+00:00", "meta": {"OBJECT_NAME": "COSMOS 2407", "OBJECT_ID": "2004-028A", "EPOCH": "2025-12-26T22:15:15.157728", "MEAN_MOTION": 13.76315258, "ECCENTRICITY": 0.00396133, "INCLINATION": 82.9593, "RA_OF_ASC_NODE": 202.388, "ARG_OF_PERICENTER": 16.0024, "MEAN_ANOMALY": 98.2276, "EPHEMERIS_TYPE": 0, "CLASSIFICATION_TYPE": "U", "NORAD_CAT_ID": 28380, "ELEMENT_SET_NO": 999, "REV_AT_EPOCH": 7618, "BSTAR": 5.1700617e-05, "MEAN_MOTION_DOT": 6.6e-07, "MEAN_MOTION_DDOT": 0}, "tle": {"line1": "1 28380U 04028A   25360.92725877  .00000066  00000+0  51701-4 0  9997", "line2": "2 28380  82.9593 202.3880 0039613  16.0024  98.2276 13.76315258 76184"}}, "geometry": {"type": "Point", "coordinates": [-157.84656295752862, -0.2937514336959967]}}, {"type": "Feature", "properties": {"norad_id": 28521, "name": "COSMOS 2414", "group": "musson", "lat": 33.57434045576807, "lon": -10.983224401123847, "alt_km": 912.8721861016948, "timestamp": "2025-12-27T04:40:45.775529+00:00", "meta": {"OBJECT_NAME": "COSMOS 2414", "OBJECT_ID": "2005-002A", "EPOCH": "2025-12-26T22:47:28.651488", "MEAN_MOTION": 13.8790478, "ECCENTRICITY": 0.00414424, "INCLINATION": 82.9489, "RA_OF_ASC_NODE": 173.9145, "ARG_OF_PERICENTER": 100.34, "MEAN_ANOMALY": 260.2439, "EPHEMERIS_TYPE": 0, "CLASSIFICATION_TYPE": "U", "NORAD_CAT_ID": 28521, "ELEMENT_SET_NO": 999, "REV_AT_EPOCH": 5992, "BSTAR": 5.8440344e-05, "MEAN_MOTION_DOT": 8.6e-07, "MEAN_MOTION_DDOT": 0}, "tle": {"line1": "1 28521U 05002A   25360.94963717  .00000086  00000+0  58440-4 0  9995", "line2": "2 28521  82.9489 173.9145 0041442 100.3400 260.2439 13.87904780 59921"}}, "geometry": {"type": "Point", "coordinates": [-10.983224401123847, 33.57434045576807]}}, {"type": "Feature", "properties": {"norad_id": 32052, "name": "COSMOS 2429", "group": "musson", "lat": -23.220213786922375, "lon": -30.377527152743827, "alt_km": 960.1807363951611, "timestamp": "2025-12-27T04:40:45.775540+00:00", "meta": {"OBJECT_NAME": "COSMOS 2429", "OBJECT_ID": "2007-038A", "EPOCH": "2025-12-26T21:48:25.665696", "MEAN_MOTION": 13.75150822, "ECCENTRICITY": 0.00383868, "INCLINATION": 82.9809, "RA_OF_ASC_NODE": 332.8632, "ARG_OF_PERICENTER": 358.7852, "MEAN_ANOMALY": 1.3205, "EPHEMERIS_TYPE": 0, "CLASSIFICATION_TYPE": "U", "NORAD_CAT_ID": 32052, "ELEMENT_SET_NO": 999, "REV_AT_EPOCH": 91797, "BSTAR": 6.4164743e-05, "MEAN_MOTION_DOT": 7.7e-07, "MEAN_MOTION_DDOT": 0}, "tle": {"line1": "1 32052U 07038A   25360.90863039  .00000077  00000+0  64165-4 0  9993", "line2": "2 32052  82.9809 332.8632 0038386 358.7852   1.3205 13.75150822917971"}}, "geometry": {"type": "Point", "coordinates": [-30.377527152743827, -23.220213786922375]}}, {"type": "Feature", "properties": {"norad_id": 35635, "name": "COSMOS 2454", "group": "musson", "lat": -58.407930783817626, "lon": 146.0896035368022, "alt_km": 936.9008637033194, "timestamp": "2025-12-27T04:40:45.775550+00:00", "meta": {"OBJECT_NAME": "COSMOS 2454", "OBJECT_ID": "2009-039A", "EPOCH": "2025-12-26T20:51:38.645856", "MEAN_MOTION": 13.89930373, "ECCENTRICITY": 0.00199068, "INCLINATION": 82.956, "RA_OF_ASC_NODE": 157.9342, "ARG_OF_PERICENTER": 35.5854, "MEAN_ANOMALY": 76.4086, "EPHEMERIS_TYPE": 0, "CLASSIFICATION_TYPE": "U", "NORAD_CAT_ID": 35635, "ELEMENT_SET_NO": 999, "REV_AT_EPOCH": 83346, "BSTAR": 5.8573957e-05, "MEAN_MOTION_DOT": 8.8e-07, "MEAN_MOTION_DDOT": 0}, "tle": {"line1": "1 35635U 09039A   25360.86919729  .00000088  00000+0  58574-4 0  9998", "line2": "2 35635  82.9560 157.9342 0019906  35.5854  76.4086 13.89930373833461"}}, "geometry": {"type": "Point", "coordinates": [146.0896035368022, -58.407930783817626]}}, {"type": "Feature", "properties": {"norad_id": 36519, "name": "COSMOS 2463", "group": "musson", "lat": 67.74917280383133, "lon": 178.51064462915414, "alt_km": 1005.3162488674761, "timestamp": "2025-12-27T04:40:45.775560+00:00", "meta": {"OBJECT_NAME": "COSMOS 2463", "OBJECT_ID": "2010-017A", "EPOCH": "2025-12-26T14:43:53.597856", "MEAN_MOTION": 13.71650343, "ECCENTRICITY": 0.0034842, "INCLINATION": 82.9603, "RA_OF_ASC_NODE": 16.5163, "ARG_OF_PERICENTER": 248.1363, "MEAN_ANOMALY": 235.1487, "EPHEMERIS_TYPE": 0, "CLASSIFICATION_TYPE": "U", "NORAD_CAT_ID": 36519, "ELEMENT_SET_NO": 999, "REV_AT_EPOCH": 78427, "BSTAR": 3.8217e-05, "MEAN_MOTION_DOT": 4.9e-07, "MEAN_MOTION_DDOT": 0}, "tle": {"line1": "1 36519U 10017A   25360.61381479  .00000049  00000+0  38217-4 0  9995", "line2": "2 36519  82.9603  16.5163 0034842 248.1363 235.1487 13.71650343784275"}}, "geometry": {"type": "Point", "coordinates": [178.51064462915414, 67.74917280383133]}}]}